IDEFIX & ARIANE 42P R/B 
1 27422U 02021B   26015.35596317  .00000179  00000+0  84534-4 0  9999
2 27422  98.5818 314.6173 0011728 350.2266   9.8687 14.30979024236396
AQUA                    
1 27424U 02022A   26015.51279194  .00000651  00000+0  14022-3 0  9990
2 27424  98.4082 341.9487 0002034  77.6776  33.2672 14.61821775260965
CZ-4B R/B               
1 27432U 02024C   26015.16433127  .00000021  00000+0  33929-4 0  9999
2 27432  98.8949  68.8114 0050325 173.9677 200.0591 14.14535718221674
MIDORI II (ADEOS-II)    
1 27597U 02056A   26015.10920784  .00000195  00000+0  94378-4 0  9997
2 27597  98.7682 333.2491 0001723 117.6261 242.5096 14.29235063202641
H-2A R/B                
1 27601U 02056E   26014.89221036  .00000219  00000+0  91473-4 0  9992
2 27601  98.3109 337.3381 0069617 322.8064  54.0117 14.33711105206406
CZ-4B R/B               
1 28059U 03049C   26015.43141706  .00000312  00000+0  83245-4 0  9991
2 28059  98.6815   8.2737 0048937  35.3790 325.0636 14.54948517178850
CZ-2C R/B               
1 28222U 04012C   26015.09615764  .00025964  00000+0  33988-3 0  9994
2 28222  97.7368  75.5362 0017040 145.4876 214.7489 15.58420834195913
SL-16 R/B               
1 28353U 04021B   26015.13960195 -.00000041  00000+0  32388-5 0  9990
2 28353  71.0030 344.8715 0003057 143.8328 216.3002 14.14592679115267
CZ-4B R/B               
1 28415U 04035C   26015.09795955  .00004573  00000+0  16749-3 0  9993
2 28415  97.3577  50.0047 0033495 156.0866 204.1938 15.27994885171725
CZ-2C R/B               
1 28480U 04046B   26014.77454019  .00000122  00000+0  61255-4 0  9993
2 28480  98.2001 293.1031 0138676 314.7304  44.2655 14.26965597100816
ARIANE 5 R/B            
1 28499U 04049H   26015.40914587  .00000814  00000+0  96281-4 0  9993
2 28499  98.2545 181.9043 0084716 163.0152 197.3929 14.85120441137884
CZ-2D R/B               
1 28738U 05024B   26015.00658833  .00020407  00000+0  30040-3 0  9998
2 28738  97.3621  28.3789 0004202 191.3163 168.7997 15.55458847131427
